OBJECT_NAME,OBJECT_ID,EPOCH,MEAN_MOTION,ECCENTRICITY,INCLINATION,RA_OF_ASC_NODE,ARG_OF_PERICENTER,MEAN_ANOMALY,EPHEMERIS_TYPE,CLASSIFICATION_TYPE,NORAD_CAT_ID,ELEMENT_SET_NO,REV_AT_EPOCH,BSTAR,MEAN_MOTION_DOT,MEAN_MOTION_DDOT
STARLINK-37531,2026-110N,2026-06-08T12:00:02.000160,15.64497292,.0001667,97.2853,355.8795,68.7809,58.7702,0,U,69136,999,426,-.23923E-1,-.2018835E-1,0
STARLINK-37662,2026-110P,2026-06-08T12:00:02.000160,15.58562644,.0000833,97.2852,355.8496,81.6031,330.6328,0,U,69137,999,426,-.33392E-1,-.225285E-1,0
STARLINK-37658,2026-110Q,2026-06-08T12:00:02.000160,15.51636685,.000147,97.2850,355.7821,110.3507,152.8835,0,U,69138,999,426,-.48228E-1,-.2534882E-1,0
STARLINK-37659,2026-110R,2026-06-08T12:00:02.000160,15.49133369,.0001413,97.2853,355.7653,87.8734,134.3987,0,U,69139,999,426,.17486E-2,.95992E-3,0
STARLINK-37653,2026-110S,2026-06-08T12:00:02.000160,15.49141044,.0001147,97.2858,355.7606,96.3590,112.1489,0,U,69140,999,426,.19159E-2,.10534E-2,0
STARLINK-37654,2026-110T,2026-06-08T12:00:02.000160,15.57653288,.000166,97.2847,355.8551,62.1960,4.6733,0,U,69141,999,426,-.37074E-1,-.23969E-1,0
STARLINK-37655,2026-110U,2026-06-08T12:00:02.000160,15.63268507,.0001507,97.2850,355.8732,65.8838,47.3785,0,U,69142,999,426,-.2569E-1,-.2059052E-1,0
STARLINK-37636,2026-110V,2026-06-08T12:00:02.000160,15.70429399,.0001925,97.2847,355.9182,90.5226,131.4180,0,U,69143,999,426,-.24141E-1,-.2567655E-1,0
STARLINK-37638,2026-110W,2026-06-08T12:00:02.000160,15.70944672,.0001907,97.2847,355.9217,88.3988,141.6321,0,U,69144,999,426,-.23813E-1,-.2585498E-1,0
STARLINK-37657,2026-110X,2026-06-08T12:00:02.000160,15.56616930,.0001711,97.2851,355.8577,71.4706,359.5824,0,U,69145,999,431,-.39416E-1,-.244411E-1,0
STARLINK-37639,2026-110Y,2026-06-08T12:00:02.000160,15.71438787,.0001875,97.2848,355.9269,90.3280,150.6532,0,U,69146,999,431,-.22766E-1,-.253181E-1,0
STARLINK-37661,2026-110Z,2026-06-08T12:00:02.000160,15.49616854,.0002373,97.2851,355.8115,68.9219,261.4766,0,U,69147,999,431,-.14526E-1,-.741237E-2,0
STARLINK-37395,2026-111A,2026-06-08T11:35:24.204192,15.80904210,.0001131,53.1589,195.2837,84.6392,275.4760,0,U,69148,999,288,.6245E-3,.124527E-2,0
STARLINK-37346,2026-111B,2026-06-07T14:19:23.565792,15.80987715,.00007869,53.1585,199.7124,100.4567,259.6544,0,U,69149,999,274,.12302E-2,.250605E-2,0
STARLINK-37332,2026-111C,2026-06-08T12:00:02.000160,15.76921756,.0001389,53.1591,195.1808,61.6700,44.4652,0,U,69150,999,415,-.17389E-1,-.2461052E-1,0
STARLINK-37297,2026-111D,2026-06-08T11:33:35.299584,15.80923557,.0001336,53.1586,195.2752,38.8565,321.2553,0,U,69151,999,288,.18976E-2,.392265E-2,0
STARLINK-37317,2026-111E,2026-06-08T11:30:45.227232,15.80969132,.0001064,53.1584,195.2613,123.6281,236.4843,0,U,69152,999,288,.1129E-2,.229147E-2,0
STARLINK-37374,2026-111F,2026-06-08T12:00:02.000160,15.71991062,.0001342,53.1597,195.1966,55.1571,42.7998,0,U,69153,999,415,-.21222E-1,-.2479588E-1,0
STARLINK-37235,2026-111G,2026-06-08T12:00:02.000160,15.65241402,.0001028,53.1600,195.3131,38.9806,1.8322,0,U,69154,999,415,-.27848E-1,-.245979E-1,0
STARLINK-37329,2026-111H,2026-06-08T11:31:24.539232,15.80922777,.0001084,53.1589,195.2643,58.2025,301.9103,0,U,69155,999,288,.73575E-3,.147354E-2,0
STARLINK-37345,2026-111J,2026-06-07T09:41:43.276704,15.80989237,.00023159,53.1585,200.6415,120.8458,239.2793,0,U,69156,999,271,.15797067E-2,.324837E-2,0
STARLINK-37353,2026-111K,2026-06-08T05:24:52.488000,15.80991412,.000128,53.1587,196.5213,48.0548,312.0584,0,U,69157,999,284,.20705E-2,.431389E-2,0
STARLINK-37363,2026-111L,2026-06-08T11:26:01.195872,15.80968719,.0001388,53.1586,195.2387,91.4549,268.6633,0,U,69158,999,288,.11308E-2,.22952E-2,0
STARLINK-37343,2026-111M,2026-06-08T12:00:02.000160,15.71121372,.0001283,53.1599,195.1882,55.6771,46.1475,0,U,69159,999,415,-.22561E-1,-.2532036E-1,0
STARLINK-37328,2026-111N,2026-06-08T00:00:04.000320,15.80850857,.00012552,53.1589,197.6242,78.9824,89.2388,0,U,69160,999,407,.28369265E-3,.55597E-3,0
STARLINK-37311,2026-111P,2026-06-08T12:00:02.000160,15.78039078,.0000576,53.1593,195.1477,114.2144,8.0038,0,U,69161,999,415,.27372E-4,.4085E-4,0
STARLINK-36286,2026-111Q,2026-06-08T12:00:02.000160,15.78046349,.0001131,53.1592,195.1376,67.6892,59.4478,0,U,69162,999,415,.26086E-4,.3862E-4,0
STARLINK-37196,2026-111R,2026-06-08T00:00:04.000320,15.78020591,.0000939,53.1593,197.6615,111.3345,38.2671,0,U,69163,999,407,.34070827E-3,.58804E-3,0
STARLINK-36288,2026-111S,2026-06-08T11:30:37.471968,15.78092197,.0001087,53.1594,195.2593,85.3977,274.7169,0,U,69164,999,288,.81426E-3,.143343E-2,0
STARLINK-37445,2026-111T,2026-06-08T12:00:02.000160,15.78041560,.0000686,53.1591,195.1228,93.7639,40.3056,0,U,69165,999,415,.39198E-4,.614E-4,0
