STARLINK-37531          
1 69136U 26110N   26159.50002315 -.02018835  00000+0 -23923-1 0  9992
2 69136  97.2853 355.8795 0001667  68.7809  58.7702 15.64497292  4261
STARLINK-37662          
1 69137U 26110P   26159.50002315 -.02252850  00000+0 -33392-1 0  9991
2 69137  97.2852 355.8496 0000833  81.6031 330.6328 15.58562644  4267
STARLINK-37658          
1 69138U 26110Q   26159.50002315 -.02534882  00000+0 -48228-1 0  9994
2 69138  97.2850 355.7821 0001470 110.3507 152.8835 15.51636685  4260
STARLINK-37659          
1 69139U 26110R   26159.50002315  .00095992  00000+0  17486-2 0  9998
2 69139  97.2853 355.7653 0001413  87.8734 134.3987 15.49133369  4265
STARLINK-37653          
1 69140U 26110S   26159.50002315  .00105340  00000+0  19159-2 0  9998
2 69140  97.2858 355.7606 0001147  96.3590 112.1489 15.49141044  4269
STARLINK-37654          
1 69141U 26110T   26159.50002315 -.02396900  00000+0 -37074-1 0  9992
2 69141  97.2847 355.8551 0001660  62.1960   4.6733 15.57653288  4264
STARLINK-37655          
1 69142U 26110U   26159.50002315 -.02059052  00000+0 -25690-1 0  9998
2 69142  97.2850 355.8732 0001507  65.8838  47.3785 15.63268507  4268
STARLINK-37636          
1 69143U 26110V   26159.50002315 -.02567655  00000+0 -24141-1 0  9992
2 69143  97.2847 355.9182 0001925  90.5226 131.4180 15.70429399  4265
STARLINK-37638          
1 69144U 26110W   26159.50002315 -.02585498  00000+0 -23813-1 0  9993
2 69144  97.2847 355.9217 0001907  88.3988 141.6321 15.70944672  4261
STARLINK-37657          
1 69145U 26110X   26159.50002315 -.02444110  00000+0 -39416-1 0  9995
2 69145  97.2851 355.8577 0001711  71.4706 359.5824 15.56616930  4310
STARLINK-37639          
1 69146U 26110Y   26159.50002315 -.02531810  00000+0 -22766-1 0  9990
2 69146  97.2848 355.9269 0001875  90.3280 150.6532 15.71438787  4319
STARLINK-37661          
1 69147U 26110Z   26159.50002315 -.00741237  00000+0 -14526-1 0  9990
2 69147  97.2851 355.8115 0002373  68.9219 261.4766 15.49616854  4318
STARLINK-37395          
1 69148U 26111A   26159.48291903  .00124527  00000+0  62450-3 0  9998
2 69148  53.1589 195.2837 0001131  84.6392 275.4760 15.80904210  2883
STARLINK-37346          
1 69149U 26111B   26158.59680053  .00250605  00000+0  12302-2 0  9995
2 69149  53.1585 199.7124 0000786 100.4567 259.6544 15.80987715  2744
STARLINK-37332          
1 69150U 26111C   26159.50002315 -.02461052  00000+0 -17389-1 0  9991
2 69150  53.1591 195.1808 0001389  61.6700  44.4652 15.76921756  4154
STARLINK-37297          
1 69151U 26111D   26159.48165856  .00392265  00000+0  18976-2 0  9998
2 69151  53.1586 195.2752 0001336  38.8565 321.2553 15.80923557  2885
STARLINK-37317          
1 69152U 26111E   26159.47969013  .00229147  00000+0  11290-2 0  9995
2 69152  53.1584 195.2613 0001064 123.6281 236.4843 15.80969132  2884
STARLINK-37374          
1 69153U 26111F   26159.50002315 -.02479588  00000+0 -21222-1 0  9998
2 69153  53.1597 195.1966 0001342  55.1571  42.7998 15.71991062  4157
STARLINK-37235          
1 69154U 26111G   26159.50002315 -.02459790  00000+0 -27848-1 0  9992
2 69154  53.1600 195.3131 0001028  38.9806   1.8322 15.65241402  4156
STARLINK-37329          
1 69155U 26111H   26159.48014513  .00147354  00000+0  73575-3 0  9999
2 69155  53.1589 195.2643 0001084  58.2025 301.9103 15.80922777  2887
STARLINK-37345          
1 69156U 26111J   26158.40397311  .00324837  00000+0  15797-2 0  9995
2 69156  53.1585 200.6415 0002315 120.8458 239.2793 15.80989237  2710
STARLINK-37353          
1 69157U 26111K   26159.22560750  .00431389  00000+0  20705-2 0  9992
2 69157  53.1587 196.5213 0001280  48.0548 312.0584 15.80991412  2843
STARLINK-37363          
1 69158U 26111L   26159.47640273  .00229520  00000+0  11308-2 0  9990
2 69158  53.1586 195.2387 0001388  91.4549 268.6633 15.80968719  2882
STARLINK-37343          
1 69159U 26111M   26159.50002315 -.02532036  00000+0 -22561-1 0  9999
2 69159  53.1599 195.1882 0001283  55.6771  46.1475 15.71121372  4150
STARLINK-37328          
1 69160U 26111N   26159.00004630  .00055597  00000+0  28369-3 0  9990
2 69160  53.1589 197.6242 0001255  78.9824  89.2388 15.80850857  4073
STARLINK-37311          
1 69161U 26111P   26159.50002315  .00004085  00000+0  27372-4 0  9994
2 69161  53.1593 195.1477 0000576 114.2144   8.0038 15.78039078  4157
STARLINK-36286          
1 69162U 26111Q   26159.50002315  .00003862  00000+0  26086-4 0  9998
2 69162  53.1592 195.1376 0001131  67.6892  59.4478 15.78046349  4151
STARLINK-37196          
1 69163U 26111R   26159.00004630  .00058804  00000+0  34071-3 0  9994
2 69163  53.1593 197.6615 0000939 111.3345  38.2671 15.78020591  4073
STARLINK-36288          
1 69164U 26111S   26159.47960037  .00143343  00000+0  81426-3 0  9997
2 69164  53.1594 195.2593 0001087  85.3977 274.7169 15.78092197  2887
STARLINK-37445          
1 69165U 26111T   26159.50002315  .00006140  00000+0  39198-4 0  9991
2 69165  53.1591 195.1228 0000686  93.7639  40.3056 15.78041560  4153
